{"type": "FeatureCollection", "features": [{"type": "Feature", "properties": {"health": 97.89600189334176, "count": 3169, "flight_id": "unknown"}, "geometry": {"type": "Polygon", "coordinates": [[[11.937886, 50.327551], [11.9379758311175, 50.327551], [11.9379758311175, 50.3276408311175], [11.937886, 50.3276408311175], [11.937886, 50.327551]]]}}, {"type": "Feature", "properties": {"health": 79.83999999999999, "count": 33, "flight_id": "unknown"}, "geometry": {"type": "Polygon", "coordinates": [[[11.940221609054982, 50.327551], [11.940311440172481, 50.327551], [11.940311440172481, 50.3276408311175], [11.940221609054982, 50.3276408311175], [11.940221609054982, 50.327551]]]}}, {"type": "Feature", "properties": {"health": 98.0858947368421, "count": 285, "flight_id": "unknown"}, "geometry": {"type": "Polygon", "coordinates": [[[11.94031144017248, 50.327551], [11.940401271289979, 50.327551], [11.940401271289979, 50.3276408311175], [11.94031144017248, 50.3276408311175], [11.94031144017248, 50.327551]]]}}, {"type": "Feature", "properties": {"health": 100.0, "count": 120, "flight_id": "unknown"}, "geometry": {"type": "Polygon", "coordinates": [[[11.94040127128998, 50.327551], [11.94049110240748, 50.327551], [11.94049110240748, 50.3276408311175], [11.94040127128998, 50.3276408311175], [11.94040127128998, 50.327551]]]}}, {"type": "Feature", "properties": {"health": 79.49355371900826, "count": 726, "flight_id": "unknown"}, "geometry": {"type": "Polygon", "coordinates": [[[11.94049110240748, 50.327551], [11.940580933524979, 50.327551], [11.940580933524979, 50.3276408311175], [11.94049110240748, 50.3276408311175], [11.94049110240748, 50.327551]]]}}, {"type": "Feature", "properties": {"health": 80.88125, "count": 760, "flight_id": "unknown"}, "geometry": {"type": "Polygon", "coordinates": [[[11.94058093352498, 50.327551], [11.94067076464248, 50.327551], [11.94067076464248, 50.3276408311175], [11.94058093352498, 50.3276408311175], [11.94058093352498, 50.327551]]]}}, {"type": "Feature", "properties": {"health": 80.24409062693978, "count": 1611, "flight_id": "unknown"}, "geometry": {"type": "Polygon", "coordinates": [[[11.940670764642478, 50.327551], [11.940760595759977, 50.327551], [11.940760595759977, 50.3276408311175], [11.940670764642478, 50.3276408311175], [11.940670764642478, 50.327551]]]}}, {"type": "Feature", "properties": {"health": 84.98393705463184, "count": 1684, "flight_id": "unknown"}, "geometry": {"type": "Polygon", "coordinates": [[[11.937886, 50.3276408311175], [11.9379758311175, 50.3276408311175], [11.9379758311175, 50.327730662235], [11.937886, 50.327730662235], [11.937886, 50.3276408311175]]]}}, {"type": "Feature", "properties": {"health": 78.53205607476636, "count": 321, "flight_id": "unknown"}, "geometry": {"type": "Polygon", "coordinates": [[[11.940131777937482, 50.3276408311175], [11.940221609054982, 50.3276408311175], [11.940221609054982, 50.327730662235], [11.940131777937482, 50.327730662235], [11.940131777937482, 50.3276408311175]]]}}, {"type": "Feature", "properties": {"health": 97.69880952380952, "count": 126, "flight_id": "unknown"}, "geometry": {"type": "Polygon", "coordinates": [[[11.940221609054982, 50.3276408311175], [11.940311440172481, 50.3276408311175], [11.940311440172481, 50.327730662235], [11.940221609054982, 50.327730662235], [11.940221609054982, 50.3276408311175]]]}}, {"type": "Feature", "properties": {"health": 99.43611111111112, "count": 54, "flight_id": "unknown"}, "geometry": {"type": "Polygon", "coordinates": [[[11.94031144017248, 50.3276408311175], [11.940401271289979, 50.3276408311175], [11.940401271289979, 50.327730662235], [11.94031144017248, 50.327730662235], [11.94031144017248, 50.3276408311175]]]}}, {"type": "Feature", "properties": {"health": 100.0, "count": 15, "flight_id": "unknown"}, "geometry": {"type": "Polygon", "coordinates": [[[11.94040127128998, 50.3276408311175], [11.94049110240748, 50.3276408311175], [11.94049110240748, 50.327730662235], [11.94040127128998, 50.327730662235], [11.94040127128998, 50.3276408311175]]]}}, {"type": "Feature", "properties": {"health": 80.58333333333333, "count": 9, "flight_id": "unknown"}, "geometry": {"type": "Polygon", "coordinates": [[[11.94058093352498, 50.3276408311175], [11.94067076464248, 50.3276408311175], [11.94067076464248, 50.327730662235], [11.94058093352498, 50.327730662235], [11.94058093352498, 50.3276408311175]]]}}, {"type": "Feature", "properties": {"health": 86.18566326530612, "count": 588, "flight_id": "unknown"}, "geometry": {"type": "Polygon", "coordinates": [[[11.940670764642478, 50.3276408311175], [11.940760595759977, 50.3276408311175], [11.940760595759977, 50.327730662235], [11.940670764642478, 50.327730662235], [11.940670764642478, 50.3276408311175]]]}}, {"type": "Feature", "properties": {"health": 90.81484848484848, "count": 297, "flight_id": "unknown"}, "geometry": {"type": "Polygon", "coordinates": [[[11.940760595759976, 50.3276408311175], [11.940850426877475, 50.3276408311175], [11.940850426877475, 50.327730662235], [11.940760595759976, 50.327730662235], [11.940760595759976, 50.3276408311175]]]}}, {"type": "Feature", "properties": {"health": 90.1162267401792, "count": 2902, "flight_id": "unknown"}, "geometry": {"type": "Polygon", "coordinates": [[[11.937886, 50.327730662235], [11.9379758311175, 50.327730662235], [11.9379758311175, 50.3278204933525], [11.937886, 50.3278204933525], [11.937886, 50.327730662235]]]}}, {"type": "Feature", "properties": {"health": 76.57824175824176, "count": 91, "flight_id": "unknown"}, "geometry": {"type": "Polygon", "coordinates": [[[11.939952115702484, 50.327730662235], [11.940041946819983, 50.327730662235], [11.940041946819983, 50.3278204933525], [11.939952115702484, 50.3278204933525], [11.939952115702484, 50.327730662235]]]}}, {"type": "Feature", "properties": {"health": 87.96733333333333, "count": 45, "flight_id": "unknown"}, "geometry": {"type": "Polygon", "coordinates": [[[11.940041946819983, 50.327730662235], [11.940131777937482, 50.327730662235], [11.940131777937482, 50.3278204933525], [11.940041946819983, 50.3278204933525], [11.940041946819983, 50.327730662235]]]}}, {"type": "Feature", "properties": {"health": 98.13, "count": 54, "flight_id": "unknown"}, "geometry": {"type": "Polygon", "coordinates": [[[11.940131777937482, 50.327730662235], [11.940221609054982, 50.327730662235], [11.940221609054982, 50.3278204933525], [11.940131777937482, 50.3278204933525], [11.940131777937482, 50.327730662235]]]}}, {"type": "Feature", "properties": {"health": 100.0, "count": 33, "flight_id": "unknown"}, "geometry": {"type": "Polygon", "coordinates": [[[11.940221609054982, 50.327730662235], [11.940311440172481, 50.327730662235], [11.940311440172481, 50.3278204933525], [11.940221609054982, 50.3278204933525], [11.940221609054982, 50.327730662235]]]}}, {"type": "Feature", "properties": {"health": 84.76280821917808, "count": 146, "flight_id": "unknown"}, "geometry": {"type": "Polygon", "coordinates": [[[11.94031144017248, 50.327730662235], [11.940401271289979, 50.327730662235], [11.940401271289979, 50.3278204933525], [11.94031144017248, 50.3278204933525], [11.94031144017248, 50.327730662235]]]}}, {"type": "Feature", "properties": {"health": 85.41, "count": 4, "flight_id": "unknown"}, "geometry": {"type": "Polygon", "coordinates": [[[11.94040127128998, 50.327730662235], [11.94049110240748, 50.327730662235], [11.94049110240748, 50.3278204933525], [11.94040127128998, 50.3278204933525], [11.94040127128998, 50.327730662235]]]}}, {"type": "Feature", "properties": {"health": 91.40476744186049, "count": 86, "flight_id": "unknown"}, "geometry": {"type": "Polygon", "coordinates": [[[11.94058093352498, 50.327730662235], [11.94067076464248, 50.327730662235], [11.94067076464248, 50.3278204933525], [11.94058093352498, 50.3278204933525], [11.94058093352498, 50.327730662235]]]}}, {"type": "Feature", "properties": {"health": 85.66891525423729, "count": 885, "flight_id": "unknown"}, "geometry": {"type": "Polygon", "coordinates": [[[11.940670764642478, 50.327730662235], [11.940760595759977, 50.327730662235], [11.940760595759977, 50.3278204933525], [11.940670764642478, 50.3278204933525], [11.940670764642478, 50.327730662235]]]}}, {"type": "Feature", "properties": {"health": 84.6557284768212, "count": 302, "flight_id": "unknown"}, "geometry": {"type": "Polygon", "coordinates": [[[11.940760595759976, 50.327730662235], [11.940850426877475, 50.327730662235], [11.940850426877475, 50.3278204933525], [11.940760595759976, 50.3278204933525], [11.940760595759976, 50.327730662235]]]}}, {"type": "Feature", "properties": {"health": 90.48162150349653, "count": 2288, "flight_id": "unknown"}, "geometry": {"type": "Polygon", "coordinates": [[[11.937886, 50.3278204933525], [11.9379758311175, 50.3278204933525], [11.9379758311175, 50.32791032447], [11.937886, 50.32791032447], [11.937886, 50.3278204933525]]]}}, {"type": "Feature", "properties": {"health": 87.25088495575221, "count": 339, "flight_id": "unknown"}, "geometry": {"type": "Polygon", "coordinates": [[[11.939862284584985, 50.3278204933525], [11.939952115702484, 50.3278204933525], [11.939952115702484, 50.32791032447], [11.939862284584985, 50.32791032447], [11.939862284584985, 50.3278204933525]]]}}, {"type": "Feature", "properties": {"health": 81.48531117397454, "count": 2828, "flight_id": "unknown"}, "geometry": {"type": "Polygon", "coordinates": [[[11.939952115702484, 50.3278204933525], [11.940041946819983, 50.3278204933525], [11.940041946819983, 50.32791032447], [11.939952115702484, 50.32791032447], [11.939952115702484, 50.3278204933525]]]}}, {"type": "Feature", "properties": {"health": 98.08954545454546, "count": 132, "flight_id": "unknown"}, "geometry": {"type": "Polygon", "coordinates": [[[11.940041946819983, 50.3278204933525], [11.940131777937482, 50.3278204933525], [11.940131777937482, 50.32791032447], [11.940041946819983, 50.32791032447], [11.940041946819983, 50.3278204933525]]]}}, {"type": "Feature", "properties": {"health": 98.04769230769232, "count": 39, "flight_id": "unknown"}, "geometry": {"type": "Polygon", "coordinates": [[[11.940131777937482, 50.3278204933525], [11.940221609054982, 50.3278204933525], [11.940221609054982, 50.32791032447], [11.940131777937482, 50.32791032447], [11.940131777937482, 50.3278204933525]]]}}, {"type": "Feature", "properties": {"health": 82.89368178466077, "count": 5424, "flight_id": "unknown"}, "geometry": {"type": "Polygon", "coordinates": [[[11.94040127128998, 50.3278204933525], [11.94049110240748, 50.3278204933525], [11.94049110240748, 50.32791032447], [11.94040127128998, 50.32791032447], [11.94040127128998, 50.3278204933525]]]}}, {"type": "Feature", "properties": {"health": 86.08365506329115, "count": 632, "flight_id": "unknown"}, "geometry": {"type": "Polygon", "coordinates": [[[11.94049110240748, 50.3278204933525], [11.940580933524979, 50.3278204933525], [11.940580933524979, 50.32791032447], [11.94049110240748, 50.32791032447], [11.94049110240748, 50.3278204933525]]]}}, {"type": "Feature", "properties": {"health": 91.496449704142, "count": 507, "flight_id": "unknown"}, "geometry": {"type": "Polygon", "coordinates": [[[11.94058093352498, 50.3278204933525], [11.94067076464248, 50.3278204933525], [11.94067076464248, 50.32791032447], [11.94058093352498, 50.32791032447], [11.94058093352498, 50.3278204933525]]]}}, {"type": "Feature", "properties": {"health": 98.3537037037037, "count": 162, "flight_id": "unknown"}, "geometry": {"type": "Polygon", "coordinates": [[[11.939952115702484, 50.32791032447], [11.940041946819983, 50.32791032447], [11.940041946819983, 50.328000155587496], [11.939952115702484, 50.328000155587496], [11.939952115702484, 50.32791032447]]]}}, {"type": "Feature", "properties": {"health": 96.55693913043478, "count": 575, "flight_id": "unknown"}, "geometry": {"type": "Polygon", "coordinates": [[[11.940041946819983, 50.32791032447], [11.940131777937482, 50.32791032447], [11.940131777937482, 50.328000155587496], [11.940041946819983, 50.328000155587496], [11.940041946819983, 50.32791032447]]]}}, {"type": "Feature", "properties": {"health": 81.30317460317461, "count": 189, "flight_id": "unknown"}, "geometry": {"type": "Polygon", "coordinates": [[[11.940131777937482, 50.32791032447], [11.940221609054982, 50.32791032447], [11.940221609054982, 50.328000155587496], [11.940131777937482, 50.328000155587496], [11.940131777937482, 50.32791032447]]]}}, {"type": "Feature", "properties": {"health": 85.88462469733656, "count": 413, "flight_id": "unknown"}, "geometry": {"type": "Polygon", "coordinates": [[[11.940221609054982, 50.32791032447], [11.940311440172481, 50.32791032447], [11.940311440172481, 50.328000155587496], [11.940221609054982, 50.328000155587496], [11.940221609054982, 50.32791032447]]]}}, {"type": "Feature", "properties": {"health": 81.52017647058824, "count": 510, "flight_id": "unknown"}, "geometry": {"type": "Polygon", "coordinates": [[[11.94031144017248, 50.32791032447], [11.940401271289979, 50.32791032447], [11.940401271289979, 50.328000155587496], [11.94031144017248, 50.328000155587496], [11.94031144017248, 50.32791032447]]]}}, {"type": "Feature", "properties": {"health": 81.01117021276596, "count": 282, "flight_id": "unknown"}, "geometry": {"type": "Polygon", "coordinates": [[[11.94040127128998, 50.32791032447], [11.94049110240748, 50.32791032447], [11.94049110240748, 50.328000155587496], [11.94040127128998, 50.328000155587496], [11.94040127128998, 50.32791032447]]]}}, {"type": "Feature", "properties": {"health": 82.49260869565218, "count": 207, "flight_id": "unknown"}, "geometry": {"type": "Polygon", "coordinates": [[[11.940131777937482, 50.328000155587496], [11.940221609054982, 50.328000155587496], [11.940221609054982, 50.328089986704995], [11.940131777937482, 50.328089986704995], [11.940131777937482, 50.328000155587496]]]}}, {"type": "Feature", "properties": {"health": 100.0, "count": 348, "flight_id": "unknown"}, "geometry": {"type": "Polygon", "coordinates": [[[11.941119920229974, 50.328089986705], [11.941209751347474, 50.328089986705], [11.941209751347474, 50.3281798178225], [11.941119920229974, 50.3281798178225], [11.941119920229974, 50.328089986705]]]}}, {"type": "Feature", "properties": {"health": 100.0, "count": 161, "flight_id": "unknown"}, "geometry": {"type": "Polygon", "coordinates": [[[11.941209751347474, 50.328089986705], [11.941299582464973, 50.328089986705], [11.941299582464973, 50.3281798178225], [11.941209751347474, 50.3281798178225], [11.941209751347474, 50.328089986705]]]}}, {"type": "Feature", "properties": {"health": 95.695, "count": 116, "flight_id": "unknown"}, "geometry": {"type": "Polygon", "coordinates": [[[11.940760595759976, 50.328179817822495], [11.940850426877475, 50.328179817822495], [11.940850426877475, 50.328269648939994], [11.940760595759976, 50.328269648939994], [11.940760595759976, 50.328179817822495]]]}}, {"type": "Feature", "properties": {"health": 100.0, "count": 447, "flight_id": "unknown"}, "geometry": {"type": "Polygon", "coordinates": [[[11.940850426877477, 50.328179817822495], [11.940940257994976, 50.328179817822495], [11.940940257994976, 50.328269648939994], [11.940850426877477, 50.328269648939994], [11.940850426877477, 50.328179817822495]]]}}, {"type": "Feature", "properties": {"health": 92.24069444444446, "count": 432, "flight_id": "unknown"}, "geometry": {"type": "Polygon", "coordinates": [[[11.940940257994976, 50.328179817822495], [11.941030089112475, 50.328179817822495], [11.941030089112475, 50.328269648939994], [11.940940257994976, 50.328269648939994], [11.940940257994976, 50.328179817822495]]]}}, {"type": "Feature", "properties": {"health": 88.82548235294118, "count": 425, "flight_id": "unknown"}, "geometry": {"type": "Polygon", "coordinates": [[[11.941030089112475, 50.328179817822495], [11.941119920229974, 50.328179817822495], [11.941119920229974, 50.328269648939994], [11.941030089112475, 50.328269648939994], [11.941030089112475, 50.328179817822495]]]}}, {"type": "Feature", "properties": {"health": 100.0, "count": 96, "flight_id": "unknown"}, "geometry": {"type": "Polygon", "coordinates": [[[11.941119920229974, 50.328179817822495], [11.941209751347474, 50.328179817822495], [11.941209751347474, 50.328269648939994], [11.941119920229974, 50.328269648939994], [11.941119920229974, 50.328179817822495]]]}}, {"type": "Feature", "properties": {"health": 79.91046511627907, "count": 129, "flight_id": "unknown"}, "geometry": {"type": "Polygon", "coordinates": [[[11.94049110240748, 50.32826964894], [11.940580933524979, 50.32826964894], [11.940580933524979, 50.3283594800575], [11.94049110240748, 50.3283594800575], [11.94049110240748, 50.32826964894]]]}}, {"type": "Feature", "properties": {"health": 79.77212765957447, "count": 470, "flight_id": "unknown"}, "geometry": {"type": "Polygon", "coordinates": [[[11.94058093352498, 50.32826964894], [11.94067076464248, 50.32826964894], [11.94067076464248, 50.3283594800575], [11.94058093352498, 50.3283594800575], [11.94058093352498, 50.32826964894]]]}}, {"type": "Feature", "properties": {"health": 79.47421768707483, "count": 441, "flight_id": "unknown"}, "geometry": {"type": "Polygon", "coordinates": [[[11.940670764642478, 50.32826964894], [11.940760595759977, 50.32826964894], [11.940760595759977, 50.3283594800575], [11.940670764642478, 50.3283594800575], [11.940670764642478, 50.32826964894]]]}}, {"type": "Feature", "properties": {"health": 79.27453703703704, "count": 324, "flight_id": "unknown"}, "geometry": {"type": "Polygon", "coordinates": [[[11.940760595759976, 50.32826964894], [11.940850426877475, 50.32826964894], [11.940850426877475, 50.3283594800575], [11.940760595759976, 50.3283594800575], [11.940760595759976, 50.32826964894]]]}}, {"type": "Feature", "properties": {"health": 90.89588235294116, "count": 408, "flight_id": "unknown"}, "geometry": {"type": "Polygon", "coordinates": [[[11.94031144017248, 50.32835948005749], [11.940401271289979, 50.32835948005749], [11.940401271289979, 50.32844931117499], [11.94031144017248, 50.32844931117499], [11.94031144017248, 50.32835948005749]]]}}, {"type": "Feature", "properties": {"health": 86.10465957446809, "count": 470, "flight_id": "unknown"}, "geometry": {"type": "Polygon", "coordinates": [[[11.94040127128998, 50.32835948005749], [11.94049110240748, 50.32835948005749], [11.94049110240748, 50.32844931117499], [11.94040127128998, 50.32844931117499], [11.94040127128998, 50.32835948005749]]]}}, {"type": "Feature", "properties": {"health": 84.15747663551402, "count": 321, "flight_id": "unknown"}, "geometry": {"type": "Polygon", "coordinates": [[[11.94049110240748, 50.32835948005749], [11.940580933524979, 50.32835948005749], [11.940580933524979, 50.32844931117499], [11.94049110240748, 50.32844931117499], [11.94049110240748, 50.32835948005749]]]}}, {"type": "Feature", "properties": {"health": 94.25885245901638, "count": 183, "flight_id": "unknown"}, "geometry": {"type": "Polygon", "coordinates": [[[11.940221609054982, 50.32844931117499], [11.940311440172481, 50.32844931117499], [11.940311440172481, 50.32853914229249], [11.940221609054982, 50.32853914229249], [11.940221609054982, 50.32844931117499]]]}}, {"type": "Feature", "properties": {"health": 94.634375, "count": 96, "flight_id": "unknown"}, "geometry": {"type": "Polygon", "coordinates": [[[11.94031144017248, 50.32844931117499], [11.940401271289979, 50.32844931117499], [11.940401271289979, 50.32853914229249], [11.94031144017248, 50.32853914229249], [11.94031144017248, 50.32844931117499]]]}}, {"type": "Feature", "properties": {"health": 74.17465909090909, "count": 88, "flight_id": "unknown"}, "geometry": {"type": "Polygon", "coordinates": [[[11.938784311174992, 50.32871880452749], [11.93887414229249, 50.32871880452749], [11.93887414229249, 50.32880863564499], [11.938784311174992, 50.32880863564499], [11.938784311174992, 50.32871880452749]]]}}, {"type": "Feature", "properties": {"health": 74.229375, "count": 32, "flight_id": "unknown"}, "geometry": {"type": "Polygon", "coordinates": [[[11.938784311174992, 50.32880863564499], [11.93887414229249, 50.32880863564499], [11.93887414229249, 50.32889846676249], [11.938784311174992, 50.32889846676249], [11.938784311174992, 50.32880863564499]]]}}, {"type": "Feature", "properties": {"health": 84.29935656836462, "count": 373, "flight_id": "unknown"}, "geometry": {"type": "Polygon", "coordinates": [[[11.938874142292493, 50.32880863564499], [11.938963973409992, 50.32880863564499], [11.938963973409992, 50.32889846676249], [11.938874142292493, 50.32889846676249], [11.938874142292493, 50.32880863564499]]]}}, {"type": "Feature", "properties": {"health": 76.39749494949496, "count": 495, "flight_id": "unknown"}, "geometry": {"type": "Polygon", "coordinates": [[[11.938963973409992, 50.32880863564499], [11.939053804527491, 50.32880863564499], [11.939053804527491, 50.32889846676249], [11.938963973409992, 50.32889846676249], [11.938963973409992, 50.32880863564499]]]}}, {"type": "Feature", "properties": {"health": 97.1842808219178, "count": 584, "flight_id": "unknown"}, "geometry": {"type": "Polygon", "coordinates": [[[11.939053804527491, 50.32880863564499], [11.93914363564499, 50.32880863564499], [11.93914363564499, 50.32889846676249], [11.939053804527491, 50.32889846676249], [11.939053804527491, 50.32880863564499]]]}}, {"type": "Feature", "properties": {"health": 98.8772258064516, "count": 310, "flight_id": "unknown"}, "geometry": {"type": "Polygon", "coordinates": [[[11.93914363564499, 50.32880863564499], [11.93923346676249, 50.32880863564499], [11.93923346676249, 50.32889846676249], [11.93914363564499, 50.32889846676249], [11.93914363564499, 50.32880863564499]]]}}, {"type": "Feature", "properties": {"health": 78.27142857142857, "count": 42, "flight_id": "unknown"}, "geometry": {"type": "Polygon", "coordinates": [[[11.93914363564499, 50.32889846676249], [11.93923346676249, 50.32889846676249], [11.93923346676249, 50.32898829787999], [11.93914363564499, 50.32898829787999], [11.93914363564499, 50.32889846676249]]]}}, {"type": "Feature", "properties": {"health": 80.98217391304347, "count": 138, "flight_id": "unknown"}, "geometry": {"type": "Polygon", "coordinates": [[[11.93923346676249, 50.32889846676249], [11.939323297879989, 50.32889846676249], [11.939323297879989, 50.32898829787999], [11.93923346676249, 50.32898829787999], [11.93923346676249, 50.32889846676249]]]}}, {"type": "Feature", "properties": {"health": 81.06484076433121, "count": 157, "flight_id": "unknown"}, "geometry": {"type": "Polygon", "coordinates": [[[11.939323297879987, 50.32889846676249], [11.939413128997487, 50.32889846676249], [11.939413128997487, 50.32898829787999], [11.939323297879987, 50.32898829787999], [11.939323297879987, 50.32889846676249]]]}}]}